SHIJIAN-29B (SJ-29B)    
1 67403U 25315C   26087.91581832 -.00000086  00000+0  00000+0 0  9999
2 67403   3.1941  97.1118 0005069 325.9719 166.2012  1.00273587   880
