{
  "norad_id": 67403,
  "name": "SHIJIAN-29B (SJ-29B)",
  "history": [
    {
      "epoch": "2026-03-28T21:58:46.702848Z",
      "apogee_km": 35807.46664408812,
      "perigee_km": 35764.712961394674,
      "latitude_deg": 2.3833840366989323,
      "longitude_deg": 73.3383550081495,
      "height_km": 35806.04129141866,
      "semi_major_axis_km": 42164.226802741396,
      "eccentricity": 0.00050699,
      "inclination_deg": 3.1941,
      "raan_deg": 97.1118,
      "arg_perigee_deg": 325.9719,
      "mean_anomaly_deg": 166.2012,
      "mean_motion_rev_day": 1.00273587
    }
  ]
}